[
    {
        "Altitude(m)": 707264.943139429,
        "Argument of Periapsis(deg)": 0.0034170363559881197,
        "Eccentricity": 0.0,
        "Inclination(deg)": 45.0,
        "Latitude(deg)": 44.96017770087064,
        "Longitude(deg)": 113.12469526252112,
        "Mean Anomaly(deg)": 85.27816499424428,
        "RAAN(deg)": 129.99677441756256,
        "Satellite Name": "Constellation 1 577",
        "Satellite Number": 577,
        "Semi-Major Axis(m)": 7083131.272910544,
        "Time(s)": 57
    },
    {
        "Altitude(m)": 707266.0735219336,
        "Argument of Periapsis(deg)": 0.003476984362233526,
        "Eccentricity": 0.0,
        "Inclination(deg)": 45.0,
        "Latitude(deg)": 44.96513755566284,
        "Longitude(deg)": 113.2059087039585,
        "Mean Anomaly(deg)": 85.33886613449414,
        "RAAN(deg)": 129.99671782839698,
        "Satellite Name": "Constellation 1 577",
        "Satellite Number": 577,
        "Semi-Major Axis(m)": 7083131.272910544,
        "Time(s)": 58
    },
    {
        "Altitude(m)": 707267.1895165856,
        "Argument of Periapsis(deg)": 0.003536932368478932,
        "Eccentricity": 0.0,
        "Inclination(deg)": 45.0,
        "Latitude(deg)": 44.97003367869509,
        "Longitude(deg)": 113.2871365781741,
        "Mean Anomaly(deg)": 85.39956727474404,
        "RAAN(deg)": 129.9966612392314,
        "Satellite Name": "Constellation 1 577",
        "Satellite Number": 577,
        "Semi-Major Axis(m)": 7083131.272910544,
        "Time(s)": 59
    },
    {
        "Altitude(m)": 707268.2911168931,
        "Argument of Periapsis(deg)": 0.003596880374724337,
        "Eccentricity": 0.0,
        "Inclination(deg)": 45.0,
        "Latitude(deg)": 44.97486604843372,
        "Longitude(deg)": 113.36837903742422,
        "Mean Anomaly(deg)": 85.46026841499393,
        "RAAN(deg)": 129.99660465006582,
        "Satellite Name": "Constellation 1 577",
        "Satellite Number": 577,
        "Semi-Major Axis(m)": 7083131.272910544,
        "Time(s)": 60
    },
    {
        "Altitude(m)": 707269.3783164491,
        "Argument of Periapsis(deg)": 0.0036568283809697427,
        "Eccentricity": 0.0,
        "Inclination(deg)": 45.0,
        "Latitude(deg)": 44.97963464361681,
        "Longitude(deg)": 113.44963572941954,
        "Mean Anomaly(deg)": 85.52096955524385,
        "RAAN(deg)": 129.99654806090027,
        "Satellite Name": "Constellation 1 577",
        "Satellite Number": 577,
        "Semi-Major Axis(m)": 7083131.272910544,
        "Time(s)": 61
    },
    {
        "Altitude(m)": 707270.4511089224,
        "Argument of Periapsis(deg)": 0.003716776387215149,
        "Eccentricity": 0.0,
        "Inclination(deg)": 45.0,
        "Latitude(deg)": 44.98433944325413,
        "Longitude(deg)": 113.53090646971724,
        "Mean Anomaly(deg)": 85.58167069549373,
        "RAAN(deg)": 129.99649147173471,
        "Satellite Name": "Constellation 1 577",
        "Satellite Number": 577,
        "Semi-Major Axis(m)": 7083131.272910544,
        "Time(s)": 62
    },
    {
        "Altitude(m)": 707271.5094880767,
        "Argument of Periapsis(deg)": 0.003776724393460554,
        "Eccentricity": 0.0,
        "Inclination(deg)": 45.0,
        "Latitude(deg)": 44.98898042662779,
        "Longitude(deg)": 113.6121910736273,
        "Mean Anomaly(deg)": 85.64237183574365,
        "RAAN(deg)": 129.99643488256913,
        "Satellite Name": "Constellation 1 577",
        "Satellite Number": 577,
        "Semi-Major Axis(m)": 7083131.272910544,
        "Time(s)": 63
    },
    {
        "Altitude(m)": 707272.5534477576,
        "Argument of Periapsis(deg)": 0.003836672399705959,
        "Eccentricity": 0.0,
        "Inclination(deg)": 45.0,
        "Latitude(deg)": 44.993557573292556,
        "Longitude(deg)": 113.69348935621498,
        "Mean Anomaly(deg)": 85.70307297599355,
        "RAAN(deg)": 129.99637829340355,
        "Satellite Name": "Constellation 1 577",
        "Satellite Number": 577,
        "Semi-Major Axis(m)": 7083131.272910544,
        "Time(s)": 64
    },
    {
        "Altitude(m)": 707273.5829818925,
        "Argument of Periapsis(deg)": 0.003896620405951365,
        "Eccentricity": 0.0,
        "Inclination(deg)": 45.0,
        "Latitude(deg)": 44.99807086307643,
        "Longitude(deg)": 113.77480113230443,
        "Mean Anomaly(deg)": 85.76377411624345,
        "RAAN(deg)": 129.996321704238,
        "Satellite Name": "Constellation 1 577",
        "Satellite Number": 577,
        "Semi-Major Axis(m)": 7083131.272910544,
        "Time(s)": 65
    },
    {
        "Altitude(m)": 707274.5980844945,
        "Argument of Periapsis(deg)": 0.003956568412196771,
        "Eccentricity": 0.0,
        "Inclination(deg)": 45.0,
        "Latitude(deg)": 45.00252027608083,
        "Longitude(deg)": 113.85612621648148,
        "Mean Anomaly(deg)": 85.82447525649334,
        "RAAN(deg)": 129.99626511507242,
        "Satellite Name": "Constellation 1 577",
        "Satellite Number": 577,
        "Semi-Major Axis(m)": 7083131.272910544,
        "Time(s)": 66
    },
    {
        "Altitude(m)": 707275.5987496589,
        "Argument of Periapsis(deg)": 0.004016516418442176,
        "Eccentricity": 0.0,
        "Inclination(deg)": 45.0,
        "Latitude(deg)": 45.006905792681394,
        "Longitude(deg)": 113.93746425499951,
        "Mean Anomaly(deg)": 85.88517639674325,
        "RAAN(deg)": 129.99620852590687,
        "Satellite Name": "Constellation 1 577",
        "Satellite Number": 577,
        "Semi-Major Axis(m)": 7083131.272910544,
        "Time(s)": 67
    },
    {
        "Altitude(m)": 707276.5849715754,
        "Argument of Periapsis(deg)": 0.004076464424687581,
        "Eccentricity": 0.0,
        "Inclination(deg)": 45.0,
        "Latitude(deg)": 45.011227393527776,
        "Longitude(deg)": 114.01881539817221,
        "Mean Anomaly(deg)": 85.94587753699315,
        "RAAN(deg)": 129.99615193674126,
        "Satellite Name": "Constellation 1 577",
        "Satellite Number": 577,
        "Semi-Major Axis(m)": 7083131.272910544,
        "Time(s)": 68
    },
    {
        "Altitude(m)": 707277.5567445063,
        "Argument of Periapsis(deg)": 0.004136412430932987,
        "Eccentricity": 0.0,
        "Inclination(deg)": 45.0,
        "Latitude(deg)": 45.015485059544716,
        "Longitude(deg)": 114.10017929179244,
        "Mean Anomaly(deg)": 86.00657867724304,
        "RAAN(deg)": 129.9960953475757,
        "Satellite Name": "Constellation 1 577",
        "Satellite Number": 577,
        "Semi-Major Axis(m)": 7083131.272910544,
        "Time(s)": 69
    },
    {
        "Altitude(m)": 707278.5140628035,
        "Argument of Periapsis(deg)": 0.004196360437178394,
        "Eccentricity": 0.0,
        "Inclination(deg)": 45.0,
        "Latitude(deg)": 45.01967877193211,
        "Longitude(deg)": 114.18155574952452,
        "Mean Anomaly(deg)": 86.06727981749295,
        "RAAN(deg)": 129.99603875841015,
        "Satellite Name": "Constellation 1 577",
        "Satellite Number": 577,
        "Semi-Major Axis(m)": 7083131.272910544,
        "Time(s)": 70
    },
    {
        "Altitude(m)": 707279.4569209049,
        "Argument of Periapsis(deg)": 0.004256308443423799,
        "Eccentricity": 0.0,
        "Inclination(deg)": 45.0,
        "Latitude(deg)": 45.023808512165346,
        "Longitude(deg)": 114.26294458481073,
        "Mean Anomaly(deg)": 86.1279809577428,
        "RAAN(deg)": 129.99598216924457,
        "Satellite Name": "Constellation 1 577",
        "Satellite Number": 577,
        "Semi-Major Axis(m)": 7083131.272910544,
        "Time(s)": 71
    },
    {
        "Altitude(m)": 707280.3853133278,
        "Argument of Periapsis(deg)": 0.004316256449669204,
        "Eccentricity": 0.0,
        "Inclination(deg)": 45.0,
        "Latitude(deg)": 45.02787426199585,
        "Longitude(deg)": 114.34434561087389,
        "Mean Anomaly(deg)": 86.18868209799273,
        "RAAN(deg)": 129.99592558007902,
        "Satellite Name": "Constellation 1 577",
        "Satellite Number": 577,
        "Semi-Major Axis(m)": 7083131.272910544,
        "Time(s)": 72
    },
    {
        "Altitude(m)": 707281.2992346868,
        "Argument of Periapsis(deg)": 0.00437620445591461,
        "Eccentricity": 0.0,
        "Inclination(deg)": 45.0,
        "Latitude(deg)": 45.03187600345141,
        "Longitude(deg)": 114.42575864072083,
        "Mean Anomaly(deg)": 86.24938323824264,
        "RAAN(deg)": 129.99586899091344,
        "Satellite Name": "Constellation 1 577",
        "Satellite Number": 577,
        "Semi-Major Axis(m)": 7083131.272910544,
        "Time(s)": 73
    },
    {
        "Altitude(m)": 707282.1986796637,
        "Argument of Periapsis(deg)": 0.004436152462160016,
        "Eccentricity": 0.0,
        "Inclination(deg)": 45.0,
        "Latitude(deg)": 45.03581371883659,
        "Longitude(deg)": 114.5071833190482,
        "Mean Anomaly(deg)": 86.31008437849255,
        "RAAN(deg)": 129.99581240174786,
        "Satellite Name": "Constellation 1 577",
        "Satellite Number": 577,
        "Semi-Major Axis(m)": 7083131.272910544,
        "Time(s)": 74
    },
    {
        "Altitude(m)": 707283.083643039,
        "Argument of Periapsis(deg)": 0.0044961004684054215,
        "Eccentricity": 0.0,
        "Inclination(deg)": 45.0,
        "Latitude(deg)": 45.039687390732816,
        "Longitude(deg)": 114.58861979463492,
        "Mean Anomaly(deg)": 86.37078551874247,
        "RAAN(deg)": 129.9957558125823,
        "Satellite Name": "Constellation 1 577",
        "Satellite Number": 577,
        "Semi-Major Axis(m)": 7083131.272910544,
        "Time(s)": 75
    }
]